{
"type": "FeatureCollection",
"name": "limite-goiana",
"crs": { "type": "name", "properties": { "name": "urn:ogc:def:crs:OGC:1.3:CRS84" } },
"xy_coordinate_resolution": 1e-07,
"features": [
{"type":"Feature","properties":{"fid":1,"CD_MUN":"2606200","NM_MUN":"Goiana","CD_RGI":"260002","NM_RGI":"Goiana - Timbaúba","CD_RGINT":"2601","NM_RGINT":"Recife","CD_UF":"26","NM_UF":"Pernambuco","SIGLA_UF":"PE","CD_REGIA":"2","NM_REGIA":"Nordeste","SIGLA_RG":"NE","CD_CONCU":null,"NM_CONCU":null,"AREA_KM2":445.405},"geometry":{"type":"MultiPolygon","coordinates":[[[[-34.922275,-7.690692],[-34.922482,-7.690732],[-34.922625,-7.690744],[-34.922916,-7.690809],[-34.923261,-7.690899],[-34.923422,-7.691],[-34.923737,-7.691297],[-34.923951,-7.691476],[-34.924162,-7.691893],[-34.930493,-7.688752],[-35.02576,-7.641492],[-35.039802,-7.634526],[-35.039815,-7.634519],[-35.040469,-7.634195],[-35.072514,-7.618298],[-35.072165,-7.618319],[-35.071014,-7.618391],[-35.069365,-7.619265],[-35.06797,-7.619468],[-35.067201,-7.619198],[-35.067628,-7.617898],[-35.067722,-7.617015],[-35.067033,-7.614994],[-35.064848,-7.613652],[-35.064405,-7.612454],[-35.063596,-7.611907],[-35.062847,-7.611746],[-35.06097,-7.611962],[-35.060378,-7.610431],[-35.060825,-7.609926],[-35.061402,-7.60831],[-35.061957,-7.60836],[-35.062815,-7.607801],[-35.063602,-7.60613],[-35.063754,-7.605021],[-35.063566,-7.604173],[-35.063165,-7.603277],[-35.061575,-7.601981],[-35.061421,-7.601407],[-35.061523,-7.600666],[-35.061228,-7.600192],[-35.061243,-7.599603],[-35.062283,-7.598812],[-35.062647,-7.597755],[-35.062498,-7.596936],[-35.06268,-7.596034],[-35.063509,-7.594173],[-35.065205,-7.592609],[-35.067834,-7.59128],[-35.072508,-7.590393],[-35.074421,-7.590031],[-35.075903,-7.58975],[-35.069816,-7.58144],[-35.069013,-7.581444],[-35.065475,-7.579965],[-35.060254,-7.578548],[-35.057225,-7.576958],[-35.056524,-7.575842],[-35.05368,-7.573613],[-35.05306,-7.572811],[-35.051451,-7.569951],[-35.050418,-7.568393],[-35.050309,-7.567805],[-35.050434,-7.56668],[-35.048983,-7.564821],[-35.047753,-7.564399],[-35.047376,-7.564026],[-35.047105,-7.563442],[-35.047371,-7.562745],[-35.047742,-7.562369],[-35.048247,-7.56146],[-35.047707,-7.560608],[-35.04765,-7.559808],[-35.047807,-7.559058],[-35.047118,-7.554844],[-35.047851,-7.551046],[-35.047631,-7.550034],[-35.04634,-7.548651],[-35.044166,-7.547487],[-35.042292,-7.546586],[-35.040418,-7.546061],[-35.039403,-7.545959],[-35.038759,-7.545697],[-35.037646,-7.544039],[-35.036583,-7.543464],[-35.038335,-7.541251],[-35.03849,-7.538925],[-35.039109,-7.537757],[-35.042834,-7.538111],[-35.044821,-7.536028],[-35.0463,-7.536145],[-35.047804,-7.53755],[-35.051016,-7.539571],[-35.052867,-7.539271],[-35.054115,-7.539392],[-35.056528,-7.539047],[-35.061302,-7.541195],[-35.061802,-7.539191],[-35.075417,-7.517595],[-35.077806,-7.513806],[-35.052143,-7.499415],[-35.051693,-7.499163],[-35.051527,-7.49907],[-35.050424,-7.498451],[-34.985417,-7.462009],[-34.98435,-7.463534],[-34.983849,-7.466835],[-34.98421,-7.469321],[-34.988264,-7.476165],[-34.990178,-7.488878],[-34.987486,-7.49088],[-34.986212,-7.493419],[-34.985975,-7.494869],[-34.985428,-7.498211],[-34.985134,-7.50001],[-34.98516,-7.500805],[-34.985162,-7.500852],[-34.985173,-7.501186],[-34.985265,-7.503912],[-34.984228,-7.507888],[-34.983593,-7.508431],[-34.979066,-7.509697],[-34.976735,-7.51199],[-34.976394,-7.513586],[-34.97348,-7.516036],[-34.972021,-7.51845],[-34.969441,-7.521065],[-34.966045,-7.527336],[-34.962769,-7.535576],[-34.960787,-7.538766],[-34.959346,-7.539133],[-34.954675,-7.539043],[-34.954672,-7.539042],[-34.950621,-7.537622],[-34.939539,-7.530049],[-34.935666,-7.528647],[-34.93566,-7.528647],[-34.932702,-7.528521],[-34.932678,-7.52852],[-34.926879,-7.531012],[-34.924448,-7.53261],[-34.923029,-7.533978],[-34.919548,-7.538725],[-34.917316,-7.54177],[-34.913977,-7.543837],[-34.913969,-7.543836],[-34.913918,-7.54383],[-34.911087,-7.543488],[-34.911026,-7.543443],[-34.911018,-7.543437],[-34.909868,-7.542592],[-34.910018,-7.541401],[-34.910815,-7.539487],[-34.910947,-7.538573],[-34.910486,-7.538137],[-34.910335,-7.537994],[-34.909447,-7.537637],[-34.906551,-7.53801],[-34.904553,-7.537824],[-34.901473,-7.537146],[-34.899895,-7.537431],[-34.899483,-7.538651],[-34.899681,-7.539508],[-34.90187,-7.542323],[-34.902042,-7.543562],[-34.901015,-7.544751],[-34.897961,-7.545321],[-34.895542,-7.545075],[-34.894069,-7.543334],[-34.891373,-7.537241],[-34.888738,-7.535904],[-34.888734,-7.535906],[-34.887747,-7.536226],[-34.887212,-7.5364],[-34.884178,-7.539457],[-34.881545,-7.540711],[-34.875735,-7.541853],[-34.873594,-7.543248],[-34.871823,-7.54869],[-34.870716,-7.549158],[-34.867392,-7.54796],[-34.86629,-7.546751],[-34.866036,-7.545985],[-34.865188,-7.544401],[-34.858023,-7.53795],[-34.853842,-7.539646],[-34.849287,-7.541495],[-34.840359,-7.543837],[-34.838594,-7.5443],[-34.835872,-7.545728],[-34.834093,-7.548324],[-34.833881,-7.548634],[-34.833305,-7.549918],[-34.832913,-7.550383],[-34.836146,-7.551639],[-34.836391,-7.552206],[-34.836561,-7.55244],[-34.836842,-7.552693],[-34.836864,-7.552701],[-34.837178,-7.552907],[-34.837475,-7.553072],[-34.838232,-7.553489],[-34.839053,-7.553941],[-34.839,-7.554219],[-34.838877,-7.554529],[-34.838583,-7.554915],[-34.838206,-7.555231],[-34.83773,-7.55553],[-34.837451,-7.555623],[-34.837259,-7.555899],[-34.837159,-7.556186],[-34.837196,-7.556435],[-34.837287,-7.556636],[-34.837443,-7.556895],[-34.837527,-7.557148],[-34.837591,-7.557351],[-34.837694,-7.557546],[-34.83785,-7.5577],[-34.837586,-7.558508],[-34.837552,-7.558536],[-34.837362,-7.558754],[-34.837164,-7.558951],[-34.837063,-7.559114],[-34.836945,-7.559257],[-34.836797,-7.559519],[-34.836743,-7.559683],[-34.83674,-7.559895],[-34.836739,-7.559905],[-34.83675,-7.560047],[-34.83689,-7.56031],[-34.836992,-7.560628],[-34.83704,-7.560924],[-34.837033,-7.561306],[-34.837012,-7.561638],[-34.836985,-7.561858],[-34.836931,-7.562115],[-34.836898,-7.562691],[-34.835171,-7.563292],[-34.835103,-7.563315],[-34.834885,-7.563458],[-34.834699,-7.563598],[-34.834478,-7.563743],[-34.834262,-7.563871],[-34.834006,-7.563965],[-34.83363,-7.563997],[-34.833426,-7.564067],[-34.833431,-7.564212],[-34.833431,-7.56423],[-34.83344,-7.564438],[-34.833439,-7.564445],[-34.833401,-7.564697],[-34.833326,-7.564923],[-34.833121,-7.565517],[-34.832982,-7.565983],[-34.83287,-7.566378],[-34.832759,-7.566778],[-34.832705,-7.56697],[-34.832605,-7.567265],[-34.832479,-7.567516],[-34.832348,-7.567734],[-34.832265,-7.567819],[-34.832141,-7.56792],[-34.832131,-7.567927],[-34.832126,-7.567933],[-34.832017,-7.568089],[-34.831941,-7.568254],[-34.83192,-7.568366],[-34.831924,-7.568447],[-34.831969,-7.568714],[-34.831975,-7.56875],[-34.832005,-7.568967],[-34.832043,-7.569242],[-34.832076,-7.569677],[-34.832071,-7.56994],[-34.832066,-7.570104],[-34.83203,-7.570232],[-34.832029,-7.570238],[-34.831947,-7.570312],[-34.831918,-7.570318],[-34.83183,-7.570337],[-34.831734,-7.570394],[-34.831732,-7.570447],[-34.8318,-7.570677],[-34.831835,-7.57085],[-34.83184,-7.571069],[-34.831839,-7.57108],[-34.831823,-7.571286],[-34.831823,-7.571292],[-34.831773,-7.571456],[-34.831732,-7.57151],[-34.831698,-7.571553],[-34.831742,-7.571687],[-34.831767,-7.571996],[-34.831784,-7.572191],[-34.831787,-7.572375],[-34.831789,-7.572475],[-34.831778,-7.572521],[-34.831736,-7.572694],[-34.831665,-7.572932],[-34.831613,-7.573122],[-34.83152,-7.573315],[-34.831387,-7.573492],[-34.831348,-7.573698],[-34.831353,-7.573957],[-34.831353,-7.573966],[-34.831395,-7.5743],[-34.831499,-7.574572],[-34.831537,-7.574724],[-34.831568,-7.574846],[-34.831573,-7.575189],[-34.83153,-7.575396],[-34.831504,-7.575649],[-34.831411,-7.575824],[-34.831313,-7.575919],[-34.831213,-7.576055],[-34.831118,-7.576374],[-34.831019,-7.576582],[-34.830867,-7.576757],[-34.830779,-7.57699],[-34.830756,-7.57733],[-34.830654,-7.577642],[-34.830452,-7.578101],[-34.830376,-7.578259],[-34.830298,-7.578342],[-34.830008,-7.578871],[-34.829859,-7.579205],[-34.829746,-7.579608],[-34.829744,-7.579619],[-34.829744,-7.579623],[-34.829704,-7.579822],[-34.829596,-7.58012],[-34.829593,-7.580124],[-34.829516,-7.580274],[-34.829451,-7.580438],[-34.829283,-7.580707],[-34.829103,-7.581045],[-34.82896,-7.581314],[-34.828622,-7.582153],[-34.82858,-7.582398],[-34.828476,-7.58301],[-34.828355,-7.583579],[-34.828319,-7.584203],[-34.828104,-7.585222],[-34.827925,-7.585791],[-34.827665,-7.586213],[-34.827414,-7.586485],[-34.827026,-7.586584],[-34.826681,-7.586616],[-34.826577,-7.586816],[-34.826447,-7.58734],[-34.826316,-7.588108],[-34.826211,-7.588736],[-34.826155,-7.589242],[-34.826007,-7.589616],[-34.825905,-7.589913],[-34.825711,-7.590576],[-34.825473,-7.591196],[-34.82514,-7.591947],[-34.824948,-7.592299],[-34.824798,-7.592577],[-34.824404,-7.593116],[-34.823818,-7.593619],[-34.823523,-7.593871],[-34.823079,-7.594326],[-34.822694,-7.59487],[-34.822393,-7.595412],[-34.822093,-7.596009],[-34.821635,-7.596701],[-34.821411,-7.597162],[-34.82123,-7.597543],[-34.821137,-7.597857],[-34.820876,-7.598339],[-34.820401,-7.598223],[-34.820242,-7.598409],[-34.820192,-7.599184],[-34.820161,-7.599733],[-34.820085,-7.600177],[-34.819794,-7.600697],[-34.81955,-7.600861],[-34.819529,-7.600924],[-34.819255,-7.601549],[-34.819102,-7.60224],[-34.818744,-7.602886],[-34.818452,-7.603263],[-34.818163,-7.603564],[-34.81768,-7.604173],[-34.817459,-7.604296],[-34.817361,-7.604452],[-34.817172,-7.604969],[-34.817015,-7.605184],[-34.816868,-7.605397],[-34.816601,-7.606029],[-34.816372,-7.606528],[-34.81615,-7.607076],[-34.815874,-7.607726],[-34.815607,-7.608193],[-34.815345,-7.608561],[-34.815113,-7.608912],[-34.814854,-7.609399],[-34.814493,-7.609895],[-34.814174,-7.610411],[-34.813984,-7.610791],[-34.813881,-7.611002],[-34.813805,-7.61116],[-34.813747,-7.611281],[-34.813415,-7.612105],[-34.813298,-7.612312],[-34.813271,-7.612358],[-34.813106,-7.612721],[-34.812913,-7.61304],[-34.812627,-7.613403],[-34.812354,-7.613771],[-34.812143,-7.614055],[-34.811913,-7.61434],[-34.811647,-7.614638],[-34.81146,-7.614782],[-34.811389,-7.614938],[-34.811272,-7.615126],[-34.811094,-7.615326],[-34.810864,-7.61546],[-34.810671,-7.615499],[-34.810307,-7.61578],[-34.809999,-7.616047],[-34.809633,-7.616269],[-34.809345,-7.616395],[-34.809173,-7.616394],[-34.809142,-7.616394],[-34.809027,-7.616508],[-34.8089,-7.616599],[-34.808822,-7.616643],[-34.808734,-7.616663],[-34.808565,-7.616743],[-34.808482,-7.616762],[-34.808349,-7.616793],[-34.808245,-7.616855],[-34.808164,-7.617019],[-34.808119,-7.617124],[-34.808065,-7.617248],[-34.807963,-7.617418],[-34.807807,-7.617622],[-34.807647,-7.617844],[-34.807166,-7.618455],[-34.806903,-7.619074],[-34.806734,-7.619792],[-34.806691,-7.620428],[-34.806747,-7.620991],[-34.807065,-7.622174],[-34.807202,-7.622472],[-34.807421,-7.622949],[-34.807339,-7.623428],[-34.807311,-7.623597],[-34.807293,-7.624005],[-34.807314,-7.624091],[-34.807438,-7.624605],[-34.807488,-7.624865],[-34.807598,-7.625113],[-34.807738,-7.625668],[-34.807875,-7.626116],[-34.807984,-7.626301],[-34.808111,-7.626679],[-34.808135,-7.626757],[-34.808218,-7.627017],[-34.808316,-7.627207],[-34.808399,-7.627368],[-34.808412,-7.627671],[-34.80847,-7.627969],[-34.808611,-7.628321],[-34.808686,-7.628689],[-34.808741,-7.629145],[-34.808776,-7.629374],[-34.808725,-7.629681],[-34.808697,-7.629872],[-34.808697,-7.629876],[-34.808733,-7.63006],[-34.808826,-7.630233],[-34.80899,-7.630396],[-34.809121,-7.630448],[-34.809299,-7.630551],[-34.810032,-7.631284],[-34.810748,-7.632009],[-34.811216,-7.632483],[-34.811788,-7.633043],[-34.812618,-7.634003],[-34.813553,-7.635146],[-34.813921,-7.635668],[-34.814183,-7.636039],[-34.8146,-7.636739],[-34.815056,-7.637436],[-34.815476,-7.63821],[-34.815486,-7.63822],[-34.815693,-7.638438],[-34.81585,-7.638651],[-34.816059,-7.638934],[-34.81646,-7.639535],[-34.816525,-7.639632],[-34.817306,-7.640868],[-34.817787,-7.641867],[-34.818151,-7.642585],[-34.818545,-7.643343],[-34.818866,-7.643672],[-34.8192,-7.644122],[-34.819514,-7.644672],[-34.819894,-7.645253],[-34.820201,-7.645681],[-34.820466,-7.646143],[-34.820768,-7.646806],[-34.821165,-7.647646],[-34.821365,-7.647938],[-34.821636,-7.648276],[-34.821886,-7.648621],[-34.822114,-7.64923],[-34.822258,-7.649485],[-34.822359,-7.649749],[-34.822511,-7.650049],[-34.822793,-7.650708],[-34.822988,-7.65143],[-34.823264,-7.652156],[-34.823575,-7.653129],[-34.823761,-7.653548],[-34.824365,-7.655462],[-34.824626,-7.656126],[-34.825166,-7.657552],[-34.825391,-7.658093],[-34.825654,-7.658725],[-34.826043,-7.659624],[-34.826532,-7.660742],[-34.826602,-7.660941],[-34.8267,-7.661223],[-34.826813,-7.661545],[-34.827121,-7.662442],[-34.827456,-7.663387],[-34.827787,-7.664278],[-34.828064,-7.664997],[-34.828277,-7.665559],[-34.828482,-7.666099],[-34.828649,-7.666624],[-34.828719,-7.666844],[-34.828836,-7.667397],[-34.828883,-7.667585],[-34.829,-7.668058],[-34.829005,-7.668555],[-34.828994,-7.668933],[-34.82916,-7.669436],[-34.829412,-7.670245],[-34.829698,-7.671621],[-34.829895,-7.672928],[-34.830055,-7.673771],[-34.83015,-7.674271],[-34.830213,-7.675322],[-34.830255,-7.676374],[-34.830557,-7.677049],[-34.830879,-7.678025],[-34.831193,-7.678818],[-34.831628,-7.679442],[-34.832188,-7.680075],[-34.832777,-7.680759],[-34.833129,-7.681174],[-34.833344,-7.681428],[-34.833391,-7.681717],[-34.833476,-7.682233],[-34.83348,-7.682533],[-34.83352,-7.682779],[-34.833641,-7.683084],[-34.833927,-7.68337],[-34.834178,-7.683637],[-34.834324,-7.683857],[-34.834652,-7.684097],[-34.834974,-7.684182],[-34.835254,-7.684249],[-34.835485,-7.684295],[-34.835535,-7.684281],[-34.835683,-7.684238],[-34.836341,-7.683954],[-34.836867,-7.683445],[-34.83719,-7.68297],[-34.837298,-7.682881],[-34.837676,-7.68257],[-34.837933,-7.682204],[-34.839235,-7.682128],[-34.83948,-7.682114],[-34.839627,-7.682105],[-34.841367,-7.682004],[-34.842311,-7.681949],[-34.842957,-7.682697],[-34.843332,-7.683189],[-34.843765,-7.683801],[-34.844245,-7.684375],[-34.844568,-7.684551],[-34.848209,-7.687789],[-34.848463,-7.687829],[-34.848676,-7.688062],[-34.84902,-7.688305],[-34.849263,-7.688376],[-34.851093,-7.688971],[-34.852506,-7.690514],[-34.852816,-7.690851],[-34.853555,-7.692609],[-34.858579,-7.704568],[-34.860877,-7.709383],[-34.862403,-7.711524],[-34.863055,-7.712178],[-34.863574,-7.712382],[-34.864927,-7.712523],[-34.86711,-7.712337],[-34.872084,-7.711128],[-34.875594,-7.709881],[-34.876557,-7.709692],[-34.877718,-7.709687],[-34.878273,-7.70981],[-34.87926,-7.710213],[-34.880483,-7.711018],[-34.88116,-7.711563],[-34.88296,-7.713652],[-34.883724,-7.71437],[-34.884043,-7.714546],[-34.88448,-7.714654],[-34.884834,-7.714645],[-34.885514,-7.714421],[-34.886082,-7.71384],[-34.886294,-7.713449],[-34.886704,-7.712206],[-34.887343,-7.710859],[-34.888026,-7.709994],[-34.888395,-7.709735],[-34.889126,-7.709488],[-34.891816,-7.708189],[-34.89234,-7.707921],[-34.892922,-7.707506],[-34.894249,-7.706288],[-34.896146,-7.703786],[-34.896425,-7.703372],[-34.896762,-7.702651],[-34.896973,-7.701774],[-34.896974,-7.700687],[-34.896735,-7.699768],[-34.896146,-7.698528],[-34.895265,-7.697925],[-34.893736,-7.69704],[-34.891429,-7.695715],[-34.890851,-7.694994],[-34.890485,-7.694245],[-34.890341,-7.693559],[-34.890481,-7.692931],[-34.890718,-7.692654],[-34.891139,-7.692417],[-34.892789,-7.69164],[-34.893147,-7.691539],[-34.893908,-7.691495],[-34.894849,-7.691265],[-34.895419,-7.690895],[-34.895579,-7.69057],[-34.895627,-7.690347],[-34.894828,-7.687536],[-34.894789,-7.68689],[-34.894929,-7.686704],[-34.895127,-7.686545],[-34.895471,-7.686498],[-34.896506,-7.6869],[-34.897183,-7.687168],[-34.897632,-7.687248],[-34.897808,-7.68722],[-34.898215,-7.686969],[-34.898486,-7.68676],[-34.898689,-7.686488],[-34.898715,-7.686312],[-34.898633,-7.68619],[-34.898339,-7.68602],[-34.897553,-7.685878],[-34.897091,-7.685926],[-34.896719,-7.685855],[-34.896465,-7.685716],[-34.896369,-7.685576],[-34.896245,-7.685098],[-34.896235,-7.68489],[-34.8964,-7.684432],[-34.896542,-7.683645],[-34.896709,-7.683437],[-34.896813,-7.683414],[-34.896876,-7.683427],[-34.896926,-7.683544],[-34.89695,-7.683684],[-34.897023,-7.683838],[-34.897164,-7.683868],[-34.897258,-7.683791],[-34.897294,-7.683705],[-34.897388,-7.68342],[-34.897437,-7.683189],[-34.897613,-7.68303],[-34.89769,-7.68298],[-34.897903,-7.682952],[-34.898219,-7.682738],[-34.898246,-7.682706],[-34.898368,-7.682557],[-34.898535,-7.682429],[-34.89868,-7.682433],[-34.898825,-7.682577],[-34.898893,-7.682706],[-34.898899,-7.682717],[-34.89911,-7.683363],[-34.899433,-7.683614],[-34.899492,-7.683727],[-34.899502,-7.68384],[-34.899475,-7.68394],[-34.899463,-7.684002],[-34.899422,-7.684216],[-34.8994,-7.684406],[-34.899292,-7.684537],[-34.899156,-7.684651],[-34.899012,-7.68476],[-34.898958,-7.684914],[-34.899009,-7.685045],[-34.899222,-7.685229],[-34.899456,-7.68533],[-34.89973,-7.685344],[-34.899884,-7.685308],[-34.900165,-7.685162],[-34.900323,-7.685012],[-34.900336,-7.684921],[-34.900317,-7.684863],[-34.900308,-7.684808],[-34.900308,-7.684732],[-34.900344,-7.684659],[-34.900384,-7.684641],[-34.900489,-7.684636],[-34.900607,-7.684618],[-34.900848,-7.684526],[-34.900928,-7.684494],[-34.900986,-7.684489],[-34.901059,-7.684502],[-34.901108,-7.684535],[-34.901154,-7.684592],[-34.901286,-7.684673],[-34.90139,-7.684672],[-34.901517,-7.68464],[-34.901606,-7.684604],[-34.901709,-7.684562],[-34.901901,-7.684453],[-34.901973,-7.684354],[-34.90206,-7.684093],[-34.902135,-7.683986],[-34.90237,-7.683842],[-34.90262,-7.683768],[-34.902858,-7.683802],[-34.902975,-7.68394],[-34.903408,-7.684215],[-34.903495,-7.684192],[-34.90354,-7.684124],[-34.903752,-7.68395],[-34.903948,-7.683762],[-34.904178,-7.683544],[-34.904339,-7.683441],[-34.904603,-7.683329],[-34.904769,-7.683303],[-34.904796,-7.683307],[-34.9053,-7.683371],[-34.905716,-7.68335],[-34.905888,-7.68339],[-34.906464,-7.683706],[-34.906652,-7.68385],[-34.90692,-7.683988],[-34.907449,-7.684126],[-34.907725,-7.68426],[-34.908057,-7.684443],[-34.908166,-7.684529],[-34.908195,-7.684678],[-34.908425,-7.684776],[-34.908826,-7.685132],[-34.908906,-7.685305],[-34.909124,-7.685377],[-34.909392,-7.685547],[-34.90947,-7.685815],[-34.909535,-7.686039],[-34.909924,-7.686419],[-34.910382,-7.686794],[-34.910687,-7.686795],[-34.91111,-7.687083],[-34.911387,-7.687119],[-34.911656,-7.686987],[-34.91252,-7.686893],[-34.912527,-7.686892],[-34.913001,-7.686759],[-34.913326,-7.686814],[-34.913689,-7.687125],[-34.913939,-7.687111],[-34.914459,-7.687082],[-34.916028,-7.68684],[-34.916329,-7.686812],[-34.916738,-7.686925],[-34.916876,-7.686998],[-34.917144,-7.6874],[-34.916929,-7.688329],[-34.916905,-7.688432],[-34.916799,-7.688869],[-34.916888,-7.689861],[-34.917051,-7.690199],[-34.917326,-7.690329],[-34.917938,-7.690466],[-34.918483,-7.690758],[-34.919526,-7.690937],[-34.920133,-7.690845],[-34.921003,-7.690465],[-34.921247,-7.690419],[-34.921548,-7.690452],[-34.921678,-7.690464],[-34.921822,-7.690542],[-34.922018,-7.690607],[-34.922275,-7.690692]]]]}}
]
}